[
    {
        "Altitude(m)": 571150.0275602024,
        "Argument of Periapsis(deg)": 0.006622991110713501,
        "Eccentricity": 0.0,
        "Inclination(deg)": 53.0,
        "Latitude(deg)": -51.35884133399077,
        "Longitude(deg)": -171.1498946316378,
        "Mean Anomaly(deg)": 257.36429286757755,
        "RAAN(deg)": 39.99014336852801,
        "Satellite Name": "Starlink Shell 1 191",
        "Satellite Number": 191,
        "Semi-Major Axis(m)": 6931778.249405717,
        "Time(s)": 190
    },
    {
        "Altitude(m)": 571216.5731021188,
        "Argument of Periapsis(deg)": 0.0069715695902247375,
        "Eccentricity": 0.0,
        "Inclination(deg)": 53.0,
        "Latitude(deg)": -51.52871524892,
        "Longitude(deg)": -170.22917620106742,
        "Mean Anomaly(deg)": 257.99112407113427,
        "RAAN(deg)": 39.98962459845054,
        "Satellite Name": "Starlink Shell 1 191",
        "Satellite Number": 191,
        "Semi-Major Axis(m)": 6931778.249405717,
        "Time(s)": 200
    },
    {
        "Altitude(m)": 571279.8884728616,
        "Argument of Periapsis(deg)": 0.007320148069735974,
        "Eccentricity": 0.0,
        "Inclination(deg)": 53.0,
        "Latitude(deg)": -51.690640883252826,
        "Longitude(deg)": -169.3014527530996,
        "Mean Anomaly(deg)": 258.617955274691,
        "RAAN(deg)": 39.98910582837307,
        "Satellite Name": "Starlink Shell 1 191",
        "Satellite Number": 191,
        "Semi-Major Axis(m)": 6931778.249405717,
        "Time(s)": 210
    },
    {
        "Altitude(m)": 571339.9484251944,
        "Argument of Periapsis(deg)": 0.007668726549247212,
        "Eccentricity": 0.0,
        "Inclination(deg)": 53.0,
        "Latitude(deg)": -51.8445160846018,
        "Longitude(deg)": -168.36697539618157,
        "Mean Anomaly(deg)": 259.2447864782477,
        "RAAN(deg)": 39.98858705829559,
        "Satellite Name": "Starlink Shell 1 191",
        "Satellite Number": 191,
        "Semi-Major Axis(m)": 6931778.249405717,
        "Time(s)": 220
    },
    {
        "Altitude(m)": 571396.7290038234,
        "Argument of Periapsis(deg)": 0.00801730502875845,
        "Eccentricity": 0.0,
        "Inclination(deg)": 53.0,
        "Latitude(deg)": -51.99024217958835,
        "Longitude(deg)": -167.4260111906126,
        "Mean Anomaly(deg)": 259.8716176818045,
        "RAAN(deg)": 39.98806828821812,
        "Satellite Name": "Starlink Shell 1 191",
        "Satellite Number": 191,
        "Semi-Major Axis(m)": 6931778.249405717,
        "Time(s)": 230
    },
    {
        "Altitude(m)": 571450.2075557596,
        "Argument of Periapsis(deg)": 0.008365883508269684,
        "Eccentricity": 0.0,
        "Inclination(deg)": 53.0,
        "Latitude(deg)": -52.12772425395774,
        "Longitude(deg)": -166.4788424041911,
        "Mean Anomaly(deg)": 260.49844888536114,
        "RAAN(deg)": 39.98754951814065,
        "Satellite Name": "Starlink Shell 1 191",
        "Satellite Number": 191,
        "Semi-Major Axis(m)": 6931778.249405717,
        "Time(s)": 240
    },
    {
        "Altitude(m)": 571500.3627401532,
        "Argument of Periapsis(deg)": 0.008714461987780921,
        "Eccentricity": 0.0,
        "Inclination(deg)": 53.0,
        "Latitude(deg)": -52.256871429753666,
        "Longitude(deg)": -165.52576719783966,
        "Mean Anomaly(deg)": 261.12528008891786,
        "RAAN(deg)": 39.98703074806318,
        "Satellite Name": "Starlink Shell 1 191",
        "Satellite Number": 191,
        "Semi-Major Axis(m)": 6931778.249405717,
        "Time(s)": 250
    },
    {
        "Altitude(m)": 571547.1745375409,
        "Argument of Periapsis(deg)": 0.009063040467292158,
        "Eccentricity": 0.0,
        "Inclination(deg)": 53.0,
        "Latitude(deg)": -52.37759713787807,
        "Longitude(deg)": -164.5670987137518,
        "Mean Anomaly(deg)": 261.7521112924745,
        "RAAN(deg)": 39.98651197798571,
        "Satellite Name": "Starlink Shell 1 191",
        "Satellite Number": 191,
        "Semi-Major Axis(m)": 6931778.249405717,
        "Time(s)": 260
    },
    {
        "Altitude(m)": 571590.624258504,
        "Argument of Periapsis(deg)": 0.009411618946803396,
        "Eccentricity": 0.0,
        "Inclination(deg)": 53.0,
        "Latitude(deg)": -52.489819384235034,
        "Longitude(deg)": -163.60316407858707,
        "Mean Anomaly(deg)": 262.3789424960313,
        "RAAN(deg)": 39.98599320790824,
        "Satellite Name": "Starlink Shell 1 191",
        "Satellite Number": 191,
        "Semi-Major Axis(m)": 6931778.249405717,
        "Time(s)": 270
    },
    {
        "Altitude(m)": 571630.6945517877,
        "Argument of Periapsis(deg)": 0.009760197426314633,
        "Eccentricity": 0.0,
        "Inclination(deg)": 53.0,
        "Latitude(deg)": -52.593461007851815,
        "Longitude(deg)": -162.63430483318118,
        "Mean Anomaly(deg)": 263.005773699588,
        "RAAN(deg)": 39.98547443783076,
        "Satellite Name": "Starlink Shell 1 191",
        "Satellite Number": 191,
        "Semi-Major Axis(m)": 6931778.249405717,
        "Time(s)": 280
    },
    {
        "Altitude(m)": 571667.3694118026,
        "Argument of Periapsis(deg)": 0.01010877590582587,
        "Eccentricity": 0.0,
        "Inclination(deg)": 53.0,
        "Latitude(deg)": -52.68844992898552,
        "Longitude(deg)": -161.66087576568287,
        "Mean Anomaly(deg)": 263.6326049031447,
        "RAAN(deg)": 39.98495566775329,
        "Satellite Name": "Starlink Shell 1 191",
        "Satellite Number": 191,
        "Semi-Major Axis(m)": 6931778.249405717,
        "Time(s)": 290
    },
    {
        "Altitude(m)": 571700.6341855546,
        "Argument of Periapsis(deg)": 0.010457354385337106,
        "Eccentricity": 0.0,
        "Inclination(deg)": 53.0,
        "Latitude(deg)": -52.774719385625176,
        "Longitude(deg)": -160.68324366122854,
        "Mean Anomaly(deg)": 264.25943610670146,
        "RAAN(deg)": 39.98443689767581,
        "Satellite Name": "Starlink Shell 1 191",
        "Satellite Number": 191,
        "Semi-Major Axis(m)": 6931778.249405717,
        "Time(s)": 300
    },
    {
        "Altitude(m)": 571730.4755789884,
        "Argument of Periapsis(deg)": 0.010805932864848343,
        "Eccentricity": 0.0,
        "Inclination(deg)": 53.0,
        "Latitude(deg)": -52.85220815658123,
        "Longitude(deg)": -159.7017874842326,
        "Mean Anomaly(deg)": 264.8862673102582,
        "RAAN(deg)": 39.983918127598336,
        "Satellite Name": "Starlink Shell 1 191",
        "Satellite Number": 191,
        "Semi-Major Axis(m)": 6931778.249405717,
        "Time(s)": 310
    },
    {
        "Altitude(m)": 571756.8816627434,
        "Argument of Periapsis(deg)": 0.01115451134435958,
        "Eccentricity": 0.0,
        "Inclination(deg)": 53.0,
        "Latitude(deg)": -52.920860769501886,
        "Longitude(deg)": -158.71689697095138,
        "Mean Anomaly(deg)": 265.5130985138149,
        "RAAN(deg)": 39.98339935752087,
        "Satellite Name": "Starlink Shell 1 191",
        "Satellite Number": 191,
        "Semi-Major Axis(m)": 6931778.249405717,
        "Time(s)": 320
    },
    {
        "Altitude(m)": 571779.8418773201,
        "Argument of Periapsis(deg)": 0.011503089823870818,
        "Eccentricity": 0.0,
        "Inclination(deg)": 53.0,
        "Latitude(deg)": -52.980627692210454,
        "Longitude(deg)": -157.72897114962086,
        "Mean Anomaly(deg)": 266.1399297173716,
        "RAAN(deg)": 39.9828805874434,
        "Satellite Name": "Starlink Shell 1 191",
        "Satellite Number": 191,
        "Semi-Major Axis(m)": 6931778.249405717,
        "Time(s)": 330
    },
    {
        "Altitude(m)": 571799.3470376369,
        "Argument of Periapsis(deg)": 0.011851668303382053,
        "Eccentricity": 0.0,
        "Inclination(deg)": 53.0,
        "Latitude(deg)": -53.03146550585235,
        "Longitude(deg)": -156.7384183063423,
        "Mean Anomaly(deg)": 266.7667609209283,
        "RAAN(deg)": 39.98236181736592,
        "Satellite Name": "Starlink Shell 1 191",
        "Satellite Number": 191,
        "Semi-Major Axis(m)": 6931778.249405717,
        "Time(s)": 340
    },
    {
        "Altitude(m)": 571815.3893370287,
        "Argument of Periapsis(deg)": 0.012200246782893292,
        "Eccentricity": 0.0,
        "Inclination(deg)": 53.0,
        "Latitude(deg)": -53.07333705846711,
        "Longitude(deg)": -155.74565437710984,
        "Mean Anomaly(deg)": 267.39359212448494,
        "RAAN(deg)": 39.98184304728845,
        "Satellite Name": "Starlink Shell 1 191",
        "Satellite Number": 191,
        "Semi-Major Axis(m)": 6931778.249405717,
        "Time(s)": 350
    },
    {
        "Altitude(m)": 571827.9623506009,
        "Argument of Periapsis(deg)": 0.012548825262404526,
        "Eccentricity": 0.0,
        "Inclination(deg)": 53.0,
        "Latitude(deg)": -53.1062115977271,
        "Longitude(deg)": -154.75110128577057,
        "Mean Anomaly(deg)": 268.0204233280417,
        "RAAN(deg)": 39.98132427721097,
        "Satellite Name": "Starlink Shell 1 191",
        "Satellite Number": 191,
        "Semi-Major Axis(m)": 6931778.249405717,
        "Time(s)": 360
    },
    {
        "Altitude(m)": 571837.0610380223,
        "Argument of Periapsis(deg)": 0.012897403741915765,
        "Eccentricity": 0.0,
        "Inclination(deg)": 53.0,
        "Latitude(deg)": -53.13006488174152,
        "Longitude(deg)": -153.75518674841732,
        "Mean Anomaly(deg)": 268.64725453159843,
        "RAAN(deg)": 39.9808055071335,
        "Satellite Name": "Starlink Shell 1 191",
        "Satellite Number": 191,
        "Semi-Major Axis(m)": 6931778.249405717,
        "Time(s)": 370
    }
]